NORAD_CAT_ID,OBJECT_NAME,OBJECT_TYPE,EPOCH,MEAN_MOTION,ECCENTRICITY,INCLINATION,RA_OF_ASC_NODE,ARG_OF_PERICENTER,MEAN_ANOMALY,BSTAR,MEAN_MOTION_DOT,MEAN_MOTION_DDOT,TLE_LINE0,TLE_LINE1,TLE_LINE2,SEMIMAJOR_AXIS,PERIOD,APOGEE,PERIGEE,DECAYED
55299.0,STARLINK-5270,PAYLOAD,2024-05-21 13:52:05,14.98316362,0.000266,70.0006,241.1273,253.7674,106.3192,0.00012701,1.422e-05,0.0,0 STARLINK-5270,1 55299U 23010AG  24142.57783864  .00001422  00000-0  12701-3 0  9990,2 55299  70.0006 241.1273 0002660 253.7674 106.3192 14.98316362 75729,6950.235,96.108,573.949,570.251,0.0
55299.0,STARLINK-5270,PAYLOAD,2024-05-21 17:04:21,14.98319591,0.0002756,70.0004,240.7907,257.4477,102.6374,0.00014859,1.68e-05,0.0,0 STARLINK-5270,1 55299U 23010AG  24142.71135664  .00001680  00000-0  14859-3 0  9997,2 55299  70.0004 240.7907 0002756 257.4477 102.6374 14.98319591 75744,6950.225,96.108,574.006,570.175,0.0
55299.0,STARLINK-5270,PAYLOAD,2024-05-22 12:17:57,14.98339491,0.000282,70.0004,238.7706,259.0536,101.0306,-3.8375e-05,-5.51e-06,0.0,0 STARLINK-5270,1 55299U 23010AG  24143.51246797 -.00000551  00000-0 -38375-4 0  9994,2 55299  70.0004 238.7706 0002820 259.0536 101.0306 14.98339491 74674,6950.164,96.106,573.988,570.069,0.0
55299.0,STARLINK-5270,PAYLOAD,2024-05-23 12:19:58,14.98322845,0.000299,70.0005,236.2461,261.998,98.084,2.8333e-05,2.45e-06,0.0,0 STARLINK-5270,1 55299U 23010AG  24144.51387516  .00000245  00000-0  28333-4 0  9991,2 55299  70.0005 236.2461 0002990 261.9980  98.0840 14.98322845 74829,6950.215,96.107,574.158,570.002,0.0
55299.0,STARLINK-5270,PAYLOAD,2024-05-23 13:56:06,14.98320499,0.0002969,70.0003,236.0783,259.1358,100.9467,5.5814e-05,5.73e-06,0.0,0 STARLINK-5270,1 55299U 23010AG  24144.58063605  .00000573  00000-0  55814-4 0  9996,2 55299  70.0003 236.0783 0002969 259.1358 100.9467 14.98320499 76021,6950.222,96.108,574.151,570.024,0.0
55299.0,STARLINK-5270,PAYLOAD,2024-05-23 15:32:15,14.98322023,0.0002931,70.0004,235.9096,261.7444,98.3383,2.1984e-05,1.69e-06,0.0,0 STARLINK-5270,1 55299U 23010AG  24144.64739645  .00000169  00000-0  21984-4 0  9999,2 55299  70.0004 235.9096 0002931 261.7444  98.3383 14.98322023 76034,6950.218,96.108,574.12,570.045,0.0
55299.0,STARLINK-5270,PAYLOAD,2024-05-24 12:21:59,14.98329141,0.0002926,70.0004,233.7215,258.0236,102.0595,-4.0129e-05,-5.72e-06,0.0,0 STARLINK-5270,1 55299U 23010AG  24145.51527461 -.00000572  00000-0 -40129-4 0  9999,2 55299  70.0004 233.7215 0002926 258.0236 102.0595 14.98329141 74972,6950.196,96.107,574.094,570.027,0.0
55299.0,STARLINK-5270,PAYLOAD,2024-05-24 13:58:07,14.98345846,0.0002823,70.0004,233.5532,254.2978,105.7869,-0.00022439,-2.77e-05,0.0,0 STARLINK-5270,1 55299U 23010AG  24145.58202800 -.00002770  00000-0 -22439-3 0  9998,2 55299  70.0004 233.5532 0002823 254.2978 105.7869 14.98345846 76177,6950.144,96.106,573.971,570.047,0.0
55299.0,STARLINK-5270,PAYLOAD,2024-05-24 15:34:15,14.98335892,0.0003237,69.9998,233.3841,266.9927,93.0862,1.9876e-05,1.44e-06,0.0,0 STARLINK-5270,1 55299U 23010AG  24145.64878721  .00000144  00000-0  19876-4 0  9999,2 55299  69.9998 233.3841 0003237 266.9927  93.0862 14.98335892 74991,6950.175,96.107,574.289,569.79,0.0
55299.0,STARLINK-5270,PAYLOAD,2024-05-25 05:59:28,14.98328745,0.0002628,70.001,231.8689,270.8068,89.279,7.6848e-05,8.24e-06,0.0,0 STARLINK-5270,1 55299U 23010AG  24146.24963199  .00000824  00000-0  76848-4 0  9997,2 55299  70.0010 231.8689 0002628 270.8068  89.2790 14.98328745 75082,6950.197,96.107,573.888,570.235,0.0
55299.0,STARLINK-5270,PAYLOAD,2024-05-25 14:00:08,14.98326772,0.0002999,70.0001,231.0285,261.3585,98.7235,2.9705e-05,2.61e-06,0.0,0 STARLINK-5270,1 55299U 23010AG  24146.58343359  .00000261  00000-0  29705-4 0  9999,2 55299  70.0001 231.0285 0002999 261.3585  98.7235 14.98326772 76321,6950.203,96.107,574.152,569.984,0.0
55299.0,STARLINK-5270,PAYLOAD,2024-05-26 12:26:01,14.9833151,0.0003375,69.9999,228.6708,271.0601,89.0171,3.9715e-05,3.81e-06,0.0,0 STARLINK-5270,1 55299U 23010AG  24147.51807051  .00000381  00000-0  39715-4 0  9992,2 55299  69.9999 228.6708 0003375 271.0601  89.0171 14.98331510 75273,6950.188,96.107,574.399,569.708,0.0
55299.0,STARLINK-5270,PAYLOAD,2024-05-26 14:02:09,14.98333357,0.0003152,69.9999,228.5031,266.449,93.6308,4.9538e-05,4.98e-06,0.0,0 STARLINK-5270,1 55299U 23010AG  24147.58482883  .00000498  00000-0  49538-4 0  9994,2 55299  69.9999 228.5031 0003152 266.4490  93.6308 14.98333357 76475,6950.183,96.107,574.238,569.857,0.0
55299.0,STARLINK-5270,PAYLOAD,2024-05-26 22:02:49,14.98338003,0.0002924,70.0002,227.6602,269.2033,90.8791,-8.4855e-05,-1.106e-05,0.0,0 STARLINK-5270,1 55299U 23010AG  24147.91862832 -.00001106  00000-0 -84855-4 0  9997,2 55299  70.0002 227.6602 0002924 269.2033  90.8791 14.98338003 76521,6950.168,96.106,574.065,570.001,0.0
55299.0,STARLINK-5270,PAYLOAD,2024-05-27 12:28:01,14.98332815,0.0002926,70.0,226.1461,265.8672,94.2153,4.6575e-05,4.63e-06,0.0,0 STARLINK-5270,1 55299U 23010AG  24148.51946663  .00000463  00000-0  46575-4 0  9999,2 55299  70.0000 226.1461 0002926 265.8672  94.2153 14.98332815 75422,6950.184,96.107,574.083,570.016,0.0
55299.0,STARLINK-5270,PAYLOAD,2024-05-27 14:04:09,14.98341197,0.0002827,69.9998,225.9794,244.8256,115.261,0.00011077,1.229e-05,0.0,0 STARLINK-5270,1 55299U 23010AG  24148.58621811  .00001229  00000-0  11077-3 0  9990,2 55299  69.9998 225.9794 0002827 244.8256 115.2610 14.98341197 76624,6950.158,96.106,573.988,570.058,0.0
55299.0,STARLINK-5270,PAYLOAD,2024-05-27 15:40:17,14.98342941,0.0002853,70.0004,225.8125,237.3212,122.7672,0.00013666,1.539e-05,0.0,0 STARLINK-5270,1 55299U 23010AG  24148.65297643  .00001539  00000-0  13666-3 0  9990,2 55299  70.0004 225.8125 0002853 237.3212 122.7672 14.98342941 75448,6950.153,96.106,574.001,570.035,0.0
55299.0,STARLINK-5270,PAYLOAD,2024-05-28 12:30:02,14.98331028,0.0002955,70.0005,223.6243,244.9141,115.1712,-6.1662e-05,-8.29e-06,0.0,0 STARLINK-5270,1 55299U 23010AG  24149.52086358 -.00000829  00000-0 -61662-4 0  9999,2 55299  70.0005 223.6243 0002955 244.9141 115.1712 14.98331028 75573,6950.19,96.107,574.108,570.001,0.0
55299.0,STARLINK-5270,PAYLOAD,2024-05-28 14:06:10,14.98328518,0.0002958,70.001,223.4577,236.8125,123.2751,-7.3493e-05,-9.7e-06,0.0,0 STARLINK-5270,1 55299U 23010AG  24149.58762619 -.00000970  00000-0 -73493-4 0  9998,2 55299  70.0010 223.4577 0002958 236.8125 123.2751 14.98328518 76778,6950.197,96.107,574.118,570.007,0.0
55299.0,STARLINK-5270,PAYLOAD,2024-05-29 12:32:03,14.98328198,0.0002765,69.9994,221.096,265.0924,94.992,-7.9291e-05,-1.039e-05,0.0,0 STARLINK-5270,1 55299U 23010AG  24150.52226764 -.00001039  00000-0 -79291-4 0  9999,2 55299  69.9994 221.0960 0002765 265.0924  94.9920 14.98328198 75723,6950.198,96.107,573.985,570.142,0.0
55299.0,STARLINK-5270,PAYLOAD,2024-05-29 14:08:11,14.98326979,0.0003117,69.9994,220.9285,272.0476,88.0326,-4.6456e-05,-6.47e-06,0.0,0 STARLINK-5270,1 55299U 23010AG  24150.58902763 -.00000647  00000-0 -46456-4 0  9996,2 55299  69.9994 220.9285 0003117 272.0476  88.0326 14.98326979 76925,6950.202,96.107,574.234,569.901,0.0
55299.0,STARLINK-5270,PAYLOAD,2024-05-30 12:34:04,14.98329106,0.0002864,69.9993,218.572,269.7315,90.3516,6.1567e-05,6.42e-06,0.0,0 STARLINK-5270,1 55299U 23010AG  24151.52366264  .00000642  00000-0  61567-4 0  9994,2 55299  69.9993 218.5720 0002864 269.7315  90.3516 14.98329106 75879,6950.196,96.107,574.051,570.07,0.0
55299.0,STARLINK-5270,PAYLOAD,2024-05-30 14:10:12,14.9832956,0.0002867,69.9993,218.4038,269.9559,90.1271,6.4912e-05,6.82e-06,0.0,0 STARLINK-5270,1 55299U 23010AG  24151.59042231  .00000682  00000-0  64912-4 0  9997,2 55299  69.9993 218.4038 0002867 269.9559  90.1271 14.98329560 77079,6950.194,96.107,574.052,570.067,0.0
55299.0,STARLINK-5270,PAYLOAD,2024-05-31 04:35:22,14.98357505,0.0002782,70.001,216.8958,272.0905,87.9936,0.0003621,4.233e-05,0.0,0 STARLINK-5270,1 55299U 23010AG  24152.19123066  .00004233  00000-0  36210-3 0  9995,2 55299  70.0010 216.8958 0002782 272.0905  87.9936 14.98357505 75970,6950.108,96.105,573.906,570.039,0.0
55299.0,STARLINK-5270,PAYLOAD,2024-05-31 12:36:05,14.98324048,0.0003346,69.9979,216.0441,274.219,85.8587,-0.00010127,-1.301e-05,0.0,0 STARLINK-5270,1 55299U 23010AG  24152.52505943 -.00001301  00000-0 -10127-3 0  9994,2 55299  69.9979 216.0441 0003346 274.2190  85.8587 14.98324048 76029,6950.211,96.107,574.402,569.751,0.0
55299.0,STARLINK-5270,PAYLOAD,2024-05-31 14:12:13,14.98322882,0.0003124,69.9984,215.8773,270.7164,89.3637,-9.5514e-05,-1.232e-05,0.0,0 STARLINK-5270,1 55299U 23010AG  24152.59182020 -.00001232  00000-0 -95514-4 0  9995,2 55299  69.9984 215.8773 0003124 270.7164  89.3637 14.98322882 77228,6950.215,96.107,574.251,569.909,0.0
55299.0,STARLINK-5270,PAYLOAD,2024-06-01 12:38:06,14.98321942,0.0002797,69.9993,213.5217,264.9106,95.1734,-0.00014644,-1.839e-05,0.0,0 STARLINK-5270,1 55299U 23010AG  24153.52646586 -.00001839  00000-0 -14644-3 0  9998,2 55299  69.9993 213.5217 0002797 264.9106  95.1734 14.98321942 76174,6950.218,96.108,574.027,570.139,0.0
55299.0,STARLINK-5270,PAYLOAD,2024-06-01 14:14:14,14.98322125,0.0002796,69.9992,213.3533,265.1414,94.9426,-0.00014218,-1.789e-05,0.0,0 STARLINK-5270,1 55299U 23010AG  24153.59322586 -.00001789  00000-0 -14218-3 0  9997,2 55299  69.9992 213.3533 0002796 265.1414  94.9426 14.98322125 77378,6950.217,96.108,574.026,570.139,0.0
55299.0,STARLINK-5270,PAYLOAD,2024-06-02 04:39:26,14.98353749,0.0002943,69.9987,211.8376,268.9039,91.1782,-0.00060296,-7.284e-05,0.0,0 STARLINK-5270,1 55299U 23010AG  24154.19405983 -.00007284  00000-0 -60296-3 0  9990,2 55299  69.9987 211.8376 0002943 268.9039  91.1782 14.98353749 76276,6950.119,96.105,574.03,569.939,0.0
55299.0,STARLINK-5270,PAYLOAD,2024-06-02 11:03:58,14.9837113,0.0002805,69.9989,211.1644,269.2121,90.8717,-0.0009179,-0.0001104,0.0,0 STARLINK-5270,1 55299U 23010AG  24154.46109381 -.00011040  00000-0 -91790-3 0  9991,2 55299  69.9989 211.1644 0002805 269.2121  90.8717 14.98371130 76315,6950.066,96.104,573.88,569.981,0.0
